{
  "norad_id": 68455,
  "name": "TRANSPORTER-16 OBJECT AR",
  "history": [
    {
      "epoch": "2026-04-14T03:31:35.059584Z",
      "apogee_km": 518.1575605303651,
      "perigee_km": 512.7409940488478,
      "latitude_deg": 1.2584015145902868e-05,
      "longitude_deg": 168.33217900109605,
      "height_km": 517.4207282265701,
      "semi_major_axis_km": 6893.586277289606,
      "eccentricity": 0.00039287,
      "inclination_deg": 97.4525,
      "raan_deg": 63.5558,
      "arg_perigee_deg": 294.3675,
      "mean_anomaly_deg": 65.7148,
      "mean_motion_rev_day": 15.16823117
    }
  ]
}